GALAXY 11 (G-11)        
1 26038U 99071A   25072.26079458 -.00000054  00000+0  00000+0 0  9990
2 26038   5.5663  76.1247 0011813 303.6343 268.5494  0.99022559 92447
INTELSAT 9 (IS-9)       
1 26451U 00043A   25072.48367123 -.00000018  00000+0  00000+0 0  9993
2 26451   9.3747  53.3428 0003299 314.6882  43.6763  1.00272898 39514
INTELSAT 10 (IS-10)     
1 26766U 01019A   25072.55501078 -.00000013  00000+0  00000+0 0  9998
2 26766   7.9710  63.9451 0003773 290.0602  83.3046  1.00272642 41003
INTELSAT 901 (IS-901)   
1 26824U 01024A   25072.46507883 -.00000212  00000+0  00000+0 0  9990
2 26824   0.0566 108.0796 0002463 263.6355 299.5407  1.00272480 18365
INTELSAT 902 (IS-902)   
1 26900U 01039A   25072.46056105 -.00000290  00000+0  00000+0 0  9993
2 26900   4.9487  77.3970 0004614 275.3838 294.2562  1.00272617 86072
INTELSAT 904 (IS-904)   
1 27380U 02007A   25072.34419720 -.00000221  00000+0  00000+0 0  9999
2 27380   5.7625  74.6836 0003275 277.6014 273.3285  1.00273065 47145
DIRECTV 5 (TEMPO 1)     
1 27426U 02023A   25072.52008485 -.00000064  00000+0  00000+0 0  9995
2 27426   3.6963  81.0758 0003509 273.8393 253.5743  1.00272698 83501
INTELSAT 905 (IS-905)   
1 27438U 02027A   25064.33100361 -.00000284  00000+0  00000+0 0  9992
2 27438   5.5691  75.4209 0003934 269.5744 256.4341  0.99892540 83265
GALAXY 3C (G-3C)        
1 27445U 02030A   25072.52312567 -.00000160  00000+0  00000+0 0  9990
2 27445   2.5432  83.9385 0002355  53.7809 127.1275  1.00271936 41877
INTELSAT 906 (IS-906)   
1 27513U 02041A   25072.55466325  .00000007  00000+0  00000+0 0  9992
2 27513   4.6277  78.5961 0003067 254.3419 102.2926  1.00272266 82408
GALAXY 23 (G-23)        
1 27854U 03034A   25072.51791285  .00000004  00000+0  00000+0 0  9992
2 27854   2.0038  85.4669 0002902 273.7476 237.7235  1.00271912 79129
GALAXY 13 (HORIZONS-1)  
1 27954U 03044A   25072.51217874  .00000123  00000+0  00000+0 0  9993
2 27954   0.2247  92.5457 0002295 263.2994 209.8989  1.00271479 41954
INTELSAT 10-02          
1 28358U 04022A   25072.28447455 -.00000022  00000+0  00000+0 0  9992
2 28358   0.0160 237.3388 0000771 112.1253 283.1025  1.00271838 75934
XM-3 (RHYTHM)           
1 28626U 05008A   25072.52477640 -.00000209  00000+0  00000+0 0  9998
2 28626   0.0607 257.8660 0002538 176.5498 199.5556  1.00269870 38005
DIRECTV 8               
1 28659U 05019A   25072.51826036 -.00000008  00000+0  00000+0 0  9999
2 28659   0.0252 172.5473 0003073 185.8070 240.5693  1.00269702 72456
GALAXY 28 (G-28)        
1 28702U 05022A   25072.52425512 -.00000194  00000+0  00000+0 0  9993
2 28702   2.1085  84.6870 0005110 220.4797 325.9587  1.00271289 47367
GALAXY 16 (G-16)        
1 29236U 06023A   25072.52225686 -.00000136  00000+0  00000+0 0  9994
2 29236   0.0369 232.8418 0002684 125.2942 262.2456  1.00271612 68354
DIRECTV 9S              
1 29494U 06043A   25072.52182247 -.00000122  00000+0  00000+0 0  9992
2 29494   1.2288  86.5549 0003257 273.8970 257.5775  1.00272335 46765
GALAXY 17 (G-17)        
1 31307U 07016B   25072.52503704 -.00000215  00000+0  00000+0 0  9997
2 31307   1.8026  85.8190 0004789 208.7118 340.8733  1.00273669 65181
DIRECTV 10              
1 31862U 07032A   25072.52156182 -.00000113  00000+0  00000+0 0  9992
2 31862   0.0468 327.3008 0000584  40.4571 248.5906  1.00272406 40977
INTELSAT 11 (IS-11)     
1 32253U 07044B   25072.46195113 -.00000277  00000+0  00000+0 0  9991
2 32253   2.3625  84.3841 0003247 272.1937 298.0366  1.00273067 63874
HORIZONS-2              
1 32388U 07063B   25072.52729593 -.00000262  00000+0  00000+0 0  9997
2 32388   1.4103  86.3889 0002195 277.0470 283.9811  1.00272698 63197
DIRECTV 11              
1 32729U 08013A   25072.52225686 -.00000135  00000+0  00000+0 0  9995
2 32729   0.0358  15.8746 0000404 302.5315 301.7882  1.00271072 40978
GALAXY 18 (G-18)        
1 32951U 08024A   25072.51747844  .00000015  00000+0  00000+0 0  9994
2 32951   0.0132 121.2143 0003038 234.0206 239.4165  1.00273169 41232
INTELSAT 25 (IS-25)     
1 33153U 08034A   25072.46421002 -.00000233  00000+0  00000+0 0  9992
2 33153   1.5169  86.0536 0003105 265.0977 315.7850  1.00272833 61071
GALAXY 19 (G-19)        
1 33376U 08045A   25072.45126484 -.00000149  00000+0  00000+0 0  9992
2 33376   0.0519 268.7644 0002711  84.2650 243.7236  1.00270336 60287
FM-5                    
1 35493U 09034A   25072.52486328 -.00000210  00000+0  00000+0 0  9996
2 35493   0.0308 262.6946 0002907 285.8653  85.6098  1.00271939 42023
INTELSAT 14 (IS-14)     
1 36097U 09064A   25072.46160361 -.00000283  00000+0  00000+0 0  9999
2 36097   0.0189 169.7993 0002632 195.5471 287.1602  1.00271381 55980
INTELSAT 15 (IS-15)     
1 36106U 09067A   25072.13030031 -.00000198  00000+0  00000+0 0  9992
2 36106   0.0199 135.1713 0002360 218.5151 309.3589  1.00276898 36605
DIRECTV 12              
1 36131U 09075A   25072.52156182 -.00000113  00000+0  00000+0 0  9995
2 36131   0.0202 345.0585 0000479  30.0002 241.3687  1.00272080 41933
INTELSAT 16 (IS-16)     
1 36397U 10006A   25072.52677465 -.00000254  00000+0  00000+0 0  9993
2 36397   0.0240 146.8635 0002053 215.0205 282.9564  1.00269982 55030
XM-5                    
1 37185U 10053A   25072.51904229 -.00000035  00000+0  00000+0 0  9998
2 37185   0.0223 253.7174 0000827 280.6997  68.6116  1.00284061 52861
INTELSAT 17 (IS-17)     
1 37238U 10065B   25072.55501078 -.00000012  00000+0  00000+0 0  9994
2 37238   0.0144 193.8513 0002510 162.6963  80.6736  1.00271495 48624
INTELSAT 28 (IS-28)     
1 37392U 11016A   25072.33864230 -.00000149  00000+0  00000+0 0  9991
2 37392   0.6123  88.8176 0004119 260.6927 288.7542  1.00147182 48667
INTELSAT 18 (IS-18)     
1 37834U 11056A   25072.60465398  .00000043  00000+0  00000+0 0  9990
2 37834   0.0134 128.5919 0001935 220.2551 220.2735  1.00274088 49199
INTELSAT 22 (IS-22)     
1 38098U 12011A   25072.55622709 -.00000069  00000+0  00000+0 0  9999
2 38098   0.0194 121.4055 0001768 230.9315  91.4047  1.00272203  2562
INTELSAT 19 (IS-19)     
1 38356U 12030A   25072.44084998 -.00000069  00000+0  00000+0 0  9997
2 38356   0.0262 156.8624 0003193 206.1858 132.9644  1.00263096 45820
INTELSAT 20 (IS-20)     
1 38740U 12043A   25072.12455691 -.00000036  00000+0  00000+0 0  9999
2 38740   0.0163 151.5240 0002732  32.6072 100.1985  1.00270951 46128
INTELSAT 21 (IS-21)     
1 38749U 12045A   25072.53042362 -.00000295  00000+0  00000+0 0  9999
2 38749   0.0337 260.8902 0001697  91.7490 311.6971  1.00273232 45902
INTELSAT 23 (IS-23)     
1 38867U 12057A   25072.53137931 -.00000294  00000+0  00000+0 0  9999
2 38867   0.0329 222.0958 0001354 171.1727 276.4070  1.00272547 45334
FM-6                    
1 39360U 13058A   25072.51886853 -.00000026  00000+0  00000+0 0  9995
2 39360   0.0225 240.5995 0000510 300.6482  60.7595  1.00270629 41447
INTELSAT 30 (IS-30)     
1 40271U 14062A   25072.52303878 -.00000160  00000+0  00000+0 0  9995
2 40271   0.0216  73.5712 0001278   1.2765 189.7536  1.00271760  2161
DIRECTV 14              
1 40333U 14078B   25072.52225686 -.00000137  00000+0  00000+0 0  9995
2 40333   0.0410 315.8853 0000581  66.2635 238.0223  1.00285002 37430
DIRECTV 15              
1 40663U 15026A   25072.45013539 -.00000112  00000+0  00000+0 0  9992
2 40663   0.0324  99.8361 0000178 106.2050  24.4297  1.00269170 35840
SKY MEXICO-1            
1 40664U 15026B   25072.33378081 -.00000244  00000+0  00000+0 0  9992
2 40664   0.0159 102.2801 0002585 274.3568 195.9640  1.00267605 35836
INTELSAT 34 (IS-34)     
1 40874U 15039A   25072.53094491 -.00000295  00000+0  00000+0 0  9997
2 40874   0.0244 173.3865 0000391  43.2750  90.3860  1.00267105 35008
INTELSAT 31 (IS-31)     
1 41581U 16035A   25072.52303878 -.00000160  00000+0  00000+0 0  9992
2 41581   0.0104 155.1832 0002098  65.0739  44.3416  1.00270529 32069
INTELSAT 36 (IS-36)     
1 41747U 16053A   25072.12455691 -.00000035  00000+0  00000+0 0  9994
2 41747   0.0212 136.8597 0000909 180.4843 326.9877  1.00264777 31320
INTELSAT 32E (IS-32E)   
1 41945U 17007B   25072.36328686 -.00000280  00000+0  00000+0 0  9995
2 41945   0.0195 111.8167 0000865 269.6048 237.3861  1.00269762 29609
INTELSAT 35E (IS-35E)   
1 42818U 17041A   25072.24941325 -.00000249  00000+0  00000+0 0  9996
2 42818   0.0031 166.8334 0002218 174.4069 245.1666  1.00272363 28198
INTELSAT 37E (IS-37E)   
1 42950U 17059A   25072.33105323 -.00000151  00000+0  00000+0 0  9994
2 42950   0.0011 177.5969 0002188 175.5911 279.1661  1.00272752 27441
AZERSPACE 2 (IS-38)     
1 43632U 18074A   25072.47941410  .00000126  00000+0  00000+0 0  9991
2 43632   0.0267 157.0776 0001641 196.7779  35.1952  1.00273089 23826
HORIZONS-3E             
1 43633U 18074B   25072.43258556 -.00000041  00000+0  00000+0 0  9997
2 43633   0.0379 315.2293 0000952 352.4680 188.2992  1.00272672 23729
AT&T T-16               
1 44333U 19034A   25072.34489069 -.00000125  00000+0  00000+0 0  9990
2 44333   0.0252 104.2087 0000896  51.4129  38.8590  1.00271295 21019
INTELSAT 39 (IS-39)     
1 44476U 19049B   25072.63544726  .00000024  00000+0  00000+0 0  9995
2 44476   0.0261 166.3224 0000773 326.7394 329.1494  1.00269267 20514
GALAXY 30 (G-30)        
1 46114U 20056C   25072.51713091  .00000027  00000+0  00000+0 0  9999
2 46114   0.0253 172.4229 0001906 195.2587 224.8752  1.00269698 16679
GALAXY 33 (G-33)        
1 54026U 22128A   25072.51556707  .00000069  00000+0  00000+0 0  9997
2 54026   0.0173 124.1841 0001873 227.4982 232.2876  1.00271105  9123
GALAXY 34 (G-34)        
1 54027U 22128B   25071.65918635  .00000043  00000+0  00000+0 0  9996
2 54027   0.0266 157.3572 0002862 228.1881 253.3307  1.00294014  9285
GALAXY 31 (G-31)        
1 54243U 22153A   25072.36850442  .00000003  00000+0  00000+0 0  9990
2 54243   0.0136 138.3698 0001365 210.2291 194.2895  1.00272774  2516
GALAXY 32 (G-32)        
1 54244U 22153B   25072.29072758 -.00000185  00000+0  00000+0 0  9991
2 54244   0.0252 146.3274 0003046 211.1914 187.3119  1.00269947  8522
GALAXY 35 (G-35)        
1 54741U 22170A   25072.52347319 -.00000172  00000+0  00000+0 0  9992
2 54741   0.0130 133.9813 0002061 214.6089 278.1285  1.00272988  8271
GALAXY 36 (G-36)        
1 54742U 22170B   25072.31086566 -.00000196  00000+0  00000+0 0  9990
2 54742   0.0100 187.6022 0002499 222.9079 143.5645  1.00272935  8157
GALAXY 37 (G-37)        
1 57493U 23112A   25072.51669652  .00000038  00000+0  00000+0 0  9992
2 57493   0.0178 177.7425 0002154 181.4742 231.1849  1.00270145  5900
